{
    "links": {
        "self": "http://www.neowsapp.com/rest/v1/neo/3799306?api_key=iIulBulltgU6a56xZRHN4H3l9WmuAYTsLGpBGhQ2"
    },
    "id": "3799306",
    "neo_reference_id": "3799306",
    "name": "(2018 CB3)",
    "designation": "2018 CB3",
    "nasa_jpl_url": "http://ssd.jpl.nasa.gov/sbdb.cgi?sstr=3799306",
    "absolute_magnitude_h": 23.0,
    "estimated_diameter": {
        "kilometers": {
            "estimated_diameter_min": 0.0667659413,
            "estimated_diameter_max": 0.1492931834
        },
        "meters": {
            "estimated_diameter_min": 66.7659413495,
            "estimated_diameter_max": 149.2931834393
        },
        "miles": {
            "estimated_diameter_min": 0.0414864197,
            "estimated_diameter_max": 0.0927664547
        },
        "feet": {
            "estimated_diameter_min": 219.0483710172,
            "estimated_diameter_max": 489.807047955
        }
    },
    "is_potentially_hazardous_asteroid": false,
    "close_approach_data": [
        {
            "close_approach_date": "2018-01-19",
            "close_approach_date_full": "2018-Jan-19 21:45",
            "epoch_date_close_approach": 1516398300000,
            "relative_velocity": {
                "kilometers_per_second": "18.497274214",
                "kilometers_per_hour": "66590.1871702661",
                "miles_per_hour": "41376.5526892134"
            },
            "miss_distance": {
                "astronomical": "0.0530650577",
                "lunar": "20.6423074453",
                "kilometers": "7938419.603347099",
                "miles": "4932705.2089400062"
            },
            "orbiting_body": "Earth"
        }
    ],
    "orbital_data": {
        "orbit_id": "2",
        "orbit_determination_date": "2019-07-19 05:26:33",
        "first_observation_date": "2018-02-10",
        "last_observation_date": "2018-02-13",
        "data_arc_in_days": 3,
        "observations_used": 21,
        "orbit_uncertainty": "9",
        "minimum_orbit_intersection": ".0401116",
        "jupiter_tisserand_invariant": "3.768",
        "epoch_osculation": "2458162.5",
        "eccentricity": ".6378882328098709",
        "semi_major_axis": "1.820275174211124",
        "inclination": "3.807670452079865",
        "ascending_node_longitude": "349.3711181847495",
        "orbital_period": "897.0238617767644",
        "perihelion_distance": ".6591430601059101",
        "perihelion_argument": "47.65543610352844",
        "aphelion_distance": "2.981407288316337",
        "perihelion_time": "2458091.829570934987",
        "mean_anomaly": "28.36195952804662",
        "mean_motion": ".4013271166353772",
        "equinox": "J2000",
        "orbit_class": {
            "orbit_class_type": "APO",
            "orbit_class_description": "Near-Earth asteroid orbits which cross the Earth’s orbit similar to that of 1862 Apollo",
            "orbit_class_range": "a (semi-major axis) > 1.0 AU; q (perihelion) < 1.017 AU"
        }
    },
    "is_sentry_object": false
}